{"fetched_at":"2026-07-14T17:41:01.579Z","source":"https://celestrak.org/NORAD/elements/gp.php?NAME=RADARSAT&FORMAT=JSON","constellation":"radarsat-2","records":[{"OBJECT_NAME":"RADARSAT-2","OBJECT_ID":"2007-061A","EPOCH":"2026-07-14T04:28:34.464864","CLASSIFICATION_TYPE":"U","MEAN_MOTION":14.29983592,"ECCENTRICITY":0.000133,"INCLINATION":98.5779,"RA_OF_ASC_NODE":201.7335,"ARG_OF_PERICENTER":84.4548,"MEAN_ANOMALY":275.6786,"EPHEMERIS_TYPE":0,"NORAD_CAT_ID":32382,"ELEMENT_SET_NO":999,"REV_AT_EPOCH":96981,"BSTAR":0.000076878,"MEAN_MOTION_DOT":0.00000155,"MEAN_MOTION_DDOT":0}]}
